GLOBALSTAR M063         
1 26081U 00008A   24336.88344541  .00000022  00000+0  15376-2 0  9997
2 26081  51.9960 271.1976 0004587 302.2236  96.6931 11.86164354134162
GLOBALSTAR M062         
1 26082U 00008B   24337.36581396 -.00000001  00000+0  69864-3 0  9993
2 26082  51.9860 314.5698 0007392  51.1187  96.3262 12.43452850134638
GLOBALSTAR M060         
1 26083U 00008C   24337.49023270  .00000019  00000+0  10984-2 0  9996
2 26083  52.0017 246.3845 0004297  78.2583  93.1074 12.17647932128583
GLOBALSTAR M064         
1 26084U 00008D   24337.43421723 -.00000068  00000+0  21291-3 0  9995
2 26084  52.0059  10.8939 0001523  47.6056 312.4905 11.88525982143812
GLOBALSTAR M065         
1 31571U 07020A   24337.11894774 -.00000057  00000+0  26091-3 0  9999
2 31571  51.9883 106.0711 0009718 222.9053 308.7748 12.61980039808830
GLOBALSTAR M069         
1 31573U 07020C   24336.96259551 -.00000067  00000+0  21474-3 0  9992
2 31573  51.9961  65.2950 0001298 116.3784  54.0482 12.53305708809519
GLOBALSTAR M072         
1 31574U 07020D   24337.01074372 -.00000086  00000+0  78974-4 0  9995
2 31574  52.0057 162.1394 0001323  85.7036  79.7953 12.34773491808013
GLOBALSTAR M071         
1 31576U 07020F   24336.77838900 -.00000058  00000+0  25569-3 0  9994
2 31576  52.0078  68.0263 0001271 107.2786  36.4882 12.62264460470806
